[{"OBJECT_NAME":"GOES 18","OBJECT_ID":"2022-021A","EPOCH":"2026-04-05T03:37:38.675712","MEAN_MOTION":1.00268291,"ECCENTRICITY":7.345e-5,"INCLINATION":0.0482,"RA_OF_ASC_NODE":39.4881,"ARG_OF_PERICENTER":32.5859,"MEAN_ANOMALY":38.7967,"EPHEMERIS_TYPE":0,"CLASSIFICATION_TYPE":"U","NORAD_CAT_ID":51850,"ELEMENT_SET_NO":999,"REV_AT_EPOCH":586,"BSTAR":0,"MEAN_MOTION_DOT":9.8e-7,"MEAN_MOTION_DDOT":0},{"OBJECT_NAME":"GOES 19","OBJECT_ID":"2024-119A","EPOCH":"2026-04-05T04:03:38.630304","MEAN_MOTION":1.00271541,"ECCENTRICITY":0.00010094,"INCLINATION":0.0443,"RA_OF_ASC_NODE":40.5976,"ARG_OF_PERICENTER":22.0775,"MEAN_ANOMALY":116.5123,"EPHEMERIS_TYPE":0,"CLASSIFICATION_TYPE":"U","NORAD_CAT_ID":60133,"ELEMENT_SET_NO":999,"REV_AT_EPOCH":623,"BSTAR":0,"MEAN_MOTION_DOT":-2.47e-6,"MEAN_MOTION_DDOT":0}]
